[
    {
        "Altitude(m)": 622205.9038501539,
        "Argument of Periapsis(deg)": 0.0,
        "Eccentricity": 0.0,
        "Inclination(deg)": 60.0,
        "Latitude(deg)": -52.162535766908334,
        "Longitude(deg)": -97.29962163138507,
        "Mean Anomaly(deg)": -114.5455,
        "RAAN(deg)": 135.0,
        "Satellite Name": "Test1 609",
        "Satellite Number": 609,
        "Semi-Major Axis(m)": 6980739.136638005,
        "Time(s)": 0
    },
    {
        "Altitude(m)": 622344.8103319358,
        "Argument of Periapsis(deg)": 0.00010418945913296404,
        "Eccentricity": 0.0,
        "Inclination(deg)": 60.0,
        "Latitude(deg)": -52.52011551569403,
        "Longitude(deg)": -96.51840769702329,
        "Mean Anomaly(deg)": -113.92539385453817,
        "RAAN(deg)": 134.99957995086024,
        "Satellite Name": "Test1 609",
        "Satellite Number": 609,
        "Semi-Major Axis(m)": 6980739.136638005,
        "Time(s)": 10
    }
]